KUIPER-00133            
1 65764U 25217C   25331.25002315 -.00015734  00000+0 -16885-2 0  9998
2 65764  51.8961 146.2289 0011055 339.3773 214.6009 14.87634693  5636
KUIPER-00139            
1 65765U 25217D   25331.25002315 -.00945857  00000+0 -66892-1 0  9999
2 65765  51.8853 142.8760 0007271 323.0720  55.7084 15.07383150  4289
KUIPER-00142            
1 65766U 25217E   25330.73617725  .00035772  00000+0  96143-3 0  9997
2 65766  51.8686 141.7261 0002730 298.2505  61.8206 15.37562399  9586
KUIPER-00145            
1 65767U 25217F   25331.25002315 -.00489223  00000+0 -16909-1 0  9995
2 65767  51.8727 139.5219 0005805 294.7760 244.6993 15.31445556  5793
KUIPER-00147            
1 65768U 25217G   25331.25002315 -.00005574  00000+0 -22911-3 0  9991
2 65768  51.8730 140.2870 0008918 321.0332 176.9237 15.21595243  3577
KUIPER-00148            
1 65769U 25217H   25331.25002315 -.00577842  00000+0 -23525-1 0  9994
2 65769  51.8644 140.4819 0008132 340.1757  90.7750 15.26124043  2100
KUIPER-00150            
1 65770U 25217J   25331.25002315 -.00057380  00000+0 -49956-2 0  9993
2 65770  51.8865 144.3516 0010802 322.8465 298.4061 14.96605065  4090
KUIPER-00151            
1 65771U 25217K   25331.25002315 -.00495687  00000+0 -24500-1 0  9997
2 65771  51.8738 140.6857 0002768 281.2107  81.3555 15.19681495  5196
